KUIPER-00061            
1 64521U 25134X   26001.83336806  .00047535  00000+0  62313-2 0  9999
2 64521  51.8981 163.7248 0000846  71.2129 207.2209 14.79858677  5192
KUIPER-00062            
1 64522U 25134Y   26001.66985505  .00006267  00000+0  75171-3 0  9991
2 64522  51.8946 168.6870 0007484  72.3433 287.8349 14.85113436 30162
KUIPER-00063            
1 64523U 25134Z   26001.70281019  .00005704  00000+0  77642-3 0  9996
2 64523  51.8994 174.3015 0000310 133.4452 226.6536 14.79938260 30085
KUIPER-00064            
1 64524U 25134AA  26001.84050881 -.00001083  00000+0 -11263-3 0  9998
2 64524  51.9028 171.1138 0007205 128.0448 232.1165 14.79958769 30144
KUIPER-00065            
1 64525U 25134AB  26001.83336806  .00012048  00000+0  15813-2 0  9997
2 64525  51.9014 176.3037 0008263  66.8312 280.3976 14.80585171  4959
KUIPER-00066            
1 64526U 25134AC  26001.80783256  .00028260  00000+0  12505-2 0  9998
2 64526  51.8920 140.0370 0000705 345.6136  14.4824 15.21453142 30571
KUIPER-00069            
1 64816U 25151A   25365.98157174  .00004362  00000+0  60055-3 0  9995
2 64816  51.9000 220.0185 0004062  78.8383 281.3036 14.79952300 26730
KUIPER-00070            
1 64817U 25151B   26001.05585561  .00005234  00000+0  71463-3 0  9991
2 64817  51.8999 244.6395 0011212  33.3985 326.7682 14.79934591 26408
